ONEWEB-0395             
1 50475U 21132G   25215.39098937  .00000503  00000+0  13845-2 0  9993
2 50475  87.8797  84.4245 0001433  83.9761 276.1530 13.11417490174064
ONEWEB-0396             
1 50476U 21132H   25215.47219625  .00000084  00000+0  17909-3 0  9992
2 50476  87.9124  38.5593 0001829  94.6553 265.4788 13.18684649179760
ONEWEB-0397             
1 50477U 21132J   25215.48704505  .00000032  00000+0  47486-4 0  9997
2 50477  87.9125  38.5573 0001962  92.1690 267.9666 13.18685843179740
ONEWEB-0398             
1 50478U 21132K   25215.43505709 -.00000597  00000+0 -17218-2 0  9994
2 50478  87.8792  84.3796 0001232  77.1043 283.0222 13.11416640173966
ONEWEB-0399             
1 50479U 21132L   25215.57409077 -.00000379  00000+0 -11060-2 0  9998
2 50479  87.8801  84.3741 0001946  88.1375 271.9976 13.11415214173979
ONEWEB-0400             
1 50480U 21132M   25215.46561002  .00000046  00000+0  82805-4 0  9991
2 50480  87.9123  38.5521 0001642  84.6113 275.5207 13.18687109179738
ONEWEB-0401             
1 50481U 21132N   25215.51014254  .00000078  00000+0  16451-3 0  9998
2 50481  87.9128  38.5391 0002012  90.0641 270.0722 13.18687178179747
ONEWEB-0402             
1 50482U 21132P   25215.47386229  .00000011  00000+0 -42499-5 0  9999
2 50482  87.9123  38.5395 0002433  91.8770 268.2641 13.18685934179765
